NORAD_CAT_ID,OBJECT_NAME,OBJECT_TYPE,EPOCH,MEAN_MOTION,ECCENTRICITY,INCLINATION,RA_OF_ASC_NODE,ARG_OF_PERICENTER,MEAN_ANOMALY,BSTAR,MEAN_MOTION_DOT,MEAN_MOTION_DDOT,TLE_LINE0,TLE_LINE1,TLE_LINE2,SEMIMAJOR_AXIS,PERIOD,APOGEE,PERIGEE,DECAYED
55287.0,STARLINK-5341,PAYLOAD,2023-09-14 03:27:59,14.98366164,0.0003208,69.9997,132.9006,267.6588,92.4204,-0.00046539,-5.647e-05,0.0,0 STARLINK-5341,1 55287U 23010U   23257.14443449 -.00005647  00000-0 -46539-3 0  9999,2 55287  69.9997 132.9006 0003208 267.6588  92.4204 14.98366164 37508,6950.081,96.105,574.176,569.716,0.0
55287.0,STARLINK-5341,PAYLOAD,2023-09-14 16:17:04,14.98329147,0.0002438,70.0003,131.555,276.4517,83.6364,2.8313e-05,2.45e-06,0.0,0 STARLINK-5341,1 55287U 23010U   23257.67852885  .00000245  00000-0  28313-4 0  9993,2 55287  70.0003 131.5550 0002438 276.4517  83.6364 14.98329147 37589,6950.196,96.107,573.755,570.366,0.0
55287.0,STARLINK-5341,PAYLOAD,2023-09-14 21:05:29,14.98324908,0.0002998,69.9997,131.0488,268.0309,92.0507,-2.9536e-05,-4.45e-06,0.0,0 STARLINK-5341,1 55287U 23010U   23257.87881194 -.00000445  00000-0 -29536-4 0  9992,2 55287  69.9997 131.0488 0002998 268.0309  92.0507 14.98324908 37921,6950.209,96.107,574.157,569.99,0.0
55287.0,STARLINK-5341,PAYLOAD,2023-09-15 01:53:53,14.9832421,0.0002817,70.0002,130.5443,266.1298,93.9539,-4.7262e-05,-6.57e-06,0.0,0 STARLINK-5341,1 55287U 23010U   23258.07909368 -.00000657  00000-0 -47262-4 0  9990,2 55287  70.0002 130.5443 0002817 266.1298  93.9539 14.98324210 37642,6950.211,96.107,574.034,570.118,0.0
55287.0,STARLINK-5341,PAYLOAD,2023-09-15 17:55:13,14.98330183,0.0002903,69.9997,128.8602,268.6579,91.4248,3.9712e-05,3.81e-06,0.0,0 STARLINK-5341,1 55287U 23010U   23258.74668656  .00000381  00000-0  39712-4 0  9999,2 55287  69.9997 128.8602 0002903 268.6579  91.4248 14.98330183 37741,6950.192,96.107,574.075,570.04,0.0
55287.0,STARLINK-5341,PAYLOAD,2023-09-16 01:55:53,14.98334443,0.000286,69.9999,128.0193,266.0897,93.9936,5.7186e-05,5.89e-06,0.0,0 STARLINK-5341,1 55287U 23010U   23259.08048274  .00000589  00000-0  57186-4 0  9990,2 55287  69.9999 128.0193 0002860 266.0897  93.9936 14.98334443 38102,6950.179,96.107,574.032,570.056,0.0
55287.0,STARLINK-5341,PAYLOAD,2023-09-16 17:57:14,14.9832659,0.0002923,70.0004,126.3375,265.6318,94.4507,8.4071e-05,9.1e-06,0.0,0 STARLINK-5341,1 55287U 23010U   23259.74808615  .00000910  00000-0  84071-4 0  9997,2 55287  70.0004 126.3375 0002923 265.6318  94.4507 14.98326590 37897,6950.203,96.107,574.1,570.037,0.0
55287.0,STARLINK-5341,PAYLOAD,2023-09-17 00:21:46,14.98326775,0.0003079,69.9999,125.6624,273.738,86.3426,7.3342e-05,7.82e-06,0.0,0 STARLINK-5341,1 55287U 23010U   23260.01512677  .00000782  00000-0  73342-4 0  9995,2 55287  69.9999 125.6624 0003079 273.7380  86.3426 14.98326775 38243,6950.203,96.107,574.208,569.928,0.0
55287.0,STARLINK-5341,PAYLOAD,2023-09-17 17:59:15,14.98331077,0.0002789,69.9998,123.8108,262.481,97.6032,-1.5011e-05,-2.72e-06,0.0,0 STARLINK-5341,1 55287U 23010U   23260.74948537 -.00000272  00000-0 -15011-4 0  9998,2 55287  69.9998 123.8108 0002789 262.4810  97.6032 14.98331077 38046,6950.19,96.107,573.993,570.116,0.0
55287.0,STARLINK-5341,PAYLOAD,2023-09-18 00:23:47,14.98332698,0.0002798,69.9995,123.1367,260.3014,99.7829,5.4799e-06,-2.8e-07,0.0,0 STARLINK-5341,1 55287U 23010U   23261.01652328 -.00000028  00000-0  54799-5 0  9994,2 55287  69.9995 123.1367 0002798 260.3014  99.7829 14.98332698 38391,6950.185,96.107,573.994,570.105,0.0
55287.0,STARLINK-5341,PAYLOAD,2023-09-18 18:01:17,14.98321928,0.0003058,69.9993,121.2861,268.7044,91.3765,-5.9375e-05,-8.01e-06,0.0,0 STARLINK-5341,1 55287U 23010U   23261.75089168 -.00000801  00000-0 -59375-4 0  9995,2 55287  69.9993 121.2861 0003058 268.7044  91.3765 14.98321928 38191,6950.218,96.108,574.208,569.957,0.0
55287.0,STARLINK-5341,PAYLOAD,2023-09-18 21:13:33,14.98321995,0.0003268,69.999,120.9495,272.509,87.5694,-7.9483e-05,-1.041e-05,0.0,0 STARLINK-5341,1 55287U 23010U   23261.88441297 -.00001041  00000-0 -79483-4 0  9993,2 55287  69.9990 120.9495 0003268 272.5090  87.5694 14.98321995 38523,6950.218,96.108,574.354,569.811,0.0
55287.0,STARLINK-5341,PAYLOAD,2023-09-19 18:03:17,14.98335716,0.0003125,69.9988,118.7609,268.9718,91.1083,8.5226e-05,9.24e-06,0.0,0 STARLINK-5341,1 55287U 23010U   23262.75228014  .00000924  00000-0  85226-4 0  9999,2 55287  69.9988 118.7609 0003125 268.9718  91.1083 14.98335716 38349,6950.175,96.107,574.212,569.868,0.0
55287.0,STARLINK-5341,PAYLOAD,2023-09-20 00:27:48,14.98340608,0.0003137,69.9988,118.0877,269.6342,90.4458,0.00013086,1.469e-05,0.0,0 STARLINK-5341,1 55287U 23010U   23263.01931471  .00001469  00000-0  13086-3 0  9996,2 55287  69.9988 118.0877 0003137 269.6342  90.4458 14.98340608 38695,6950.16,96.106,574.205,569.845,0.0
55287.0,STARLINK-5341,PAYLOAD,2023-09-20 18:05:18,14.98320729,0.0003174,69.9985,116.2354,270.1813,89.8983,4.8934e-05,4.91e-06,0.0,0 STARLINK-5341,1 55287U 23010U   23263.75368970  .00000491  00000-0  48934-4 0  9990,2 55287  69.9985 116.2354 0003174 270.1813  89.8983 14.98320729 38498,6950.222,96.108,574.293,569.881,0.0
55287.0,STARLINK-5341,PAYLOAD,2023-09-20 21:17:35,14.98319227,0.0003167,69.9987,115.8988,269.2665,90.8131,3.0771e-05,2.74e-06,0.0,0 STARLINK-5341,1 55287U 23010U   23263.88721172  .00000274  00000-0  30771-4 0  9990,2 55287  69.9987 115.8988 0003167 269.2665  90.8131 14.98319227 38829,6950.226,96.108,574.292,569.89,0.0
55287.0,STARLINK-5341,PAYLOAD,2023-09-21 00:29:51,14.98314354,0.0002966,69.9999,115.5625,271.64,88.4419,4.5276e-05,4.47e-06,0.0,0 STARLINK-5341,1 55287U 23010U   23264.02073585  .00000447  00000-0  45276-4 0  9993,2 55287  69.9999 115.5625 0002966 271.6400  88.4419 14.98314354 38533,6950.241,96.108,574.168,570.045,0.0
55287.0,STARLINK-5341,PAYLOAD,2023-09-21 13:18:55,14.98331219,0.0003132,69.9985,114.2157,269.0231,91.057,-7.8175e-05,-1.026e-05,0.0,0 STARLINK-5341,1 55287U 23010U   23264.55480926 -.00001026  00000-0 -78175-4 0  9992,2 55287  69.9985 114.2157 0003132 269.0231  91.0570 14.98331219 38923,6950.189,96.107,574.231,569.877,0.0
55287.0,STARLINK-5341,PAYLOAD,2023-09-21 18:07:17,14.98354398,0.0002806,70.0,113.7122,266.3054,93.7784,0.00020425,2.346e-05,0.0,0 STARLINK-5341,1 55287U 23010U   23264.75506723  .00002346  00000-0  20425-3 0  9996,2 55287  70.0000 113.7122 0002806 266.3054  93.7784 14.98354398 38648,6950.117,96.105,573.933,570.032,0.0
55287.0,STARLINK-5341,PAYLOAD,2023-09-21 21:19:33,14.98363475,0.0002707,70.0005,113.3756,262.6817,97.4035,0.00031397,3.658e-05,0.0,0 STARLINK-5341,1 55287U 23010U   23264.88857727  .00003658  00000-0  31397-3 0  9990,2 55287  70.0005 113.3756 0002707 262.6817  97.4035 14.98363475 38970,6950.089,96.105,573.836,570.073,0.0
55287.0,STARLINK-5341,PAYLOAD,2023-09-22 13:20:55,14.98337215,0.0002168,69.9986,111.6896,264.483,95.6081,0.00016603,1.889e-05,0.0,0 STARLINK-5341,1 55287U 23010U   23265.55619222  .00001889  00000-0  16603-3 0  9998,2 55287  69.9986 111.6896 0002168 264.4830  95.6081 14.98337215 39073,6950.171,96.107,573.542,570.529,0.0
55287.0,STARLINK-5341,PAYLOAD,2023-09-22 18:09:20,14.98324864,0.0003492,69.9982,111.1859,277.4547,82.6215,1.5146e-05,8.8e-07,0.0,0 STARLINK-5341,1 55287U 23010U   23265.75648350  .00000088  00000-0  15146-4 0  9996,2 55287  69.9982 111.1859 0003492 277.4547  82.6215 14.98324864 38792,6950.209,96.107,574.501,569.647,0.0
55287.0,STARLINK-5341,PAYLOAD,2023-09-22 21:21:36,14.98323546,0.0003254,69.9984,110.848,273.6484,86.4303,8.3435e-06,6e-08,0.0,0 STARLINK-5341,1 55287U 23010U   23265.89000453  .00000006  00000-0  83435-5 0  9994,2 55287  69.9984 110.8480 0003254 273.6484  86.4303 14.98323546 39128,6950.213,96.107,574.339,569.816,0.0
55287.0,STARLINK-5341,PAYLOAD,2023-09-22 22:57:44,14.9832482,0.0003356,69.9982,110.6811,274.9168,85.1608,1.183e-05,4.8e-07,0.0,0 STARLINK-5341,1 55287U 23010U   23265.95676385  .00000048  00000-0  11830-4 0  9999,2 55287  69.9982 110.6811 0003356 274.9168  85.1608 14.98324820 39139,6950.209,96.107,574.406,569.741,0.0
55287.0,STARLINK-5341,PAYLOAD,2023-09-23 19:47:29,14.98338408,0.0003343,69.9986,108.4916,278.1656,81.9124,-0.00017756,-2.212e-05,0.0,0 STARLINK-5341,1 55287U 23010U   23266.82464204 -.00002212  00000-0 -17756-3 0  9990,2 55287  69.9986 108.4916 0003343 278.1656  81.9124 14.98338408 38951,6950.167,96.106,574.355,569.708,0.0
55287.0,STARLINK-5341,PAYLOAD,2023-09-23 22:59:45,14.98340057,0.0003108,69.9988,108.155,275.1227,84.9577,-0.00018514,-2.302e-05,0.0,0 STARLINK-5341,1 55287U 23010U   23266.95816045 -.00002302  00000-0 -18514-3 0  9991,2 55287  69.9988 108.1550 0003108 275.1227  84.9577 14.98340057 39289,6950.162,96.106,574.187,569.867,0.0
55287.0,STARLINK-5341,PAYLOAD,2023-09-24 18:13:22,14.98323424,0.0003085,69.9989,106.1355,274.9701,85.1106,5.3115e-05,5.41e-06,0.0,0 STARLINK-5341,1 55287U 23010U   23267.75928376  .00000541  00000-0  53115-4 0  9999,2 55287  69.9989 106.1355 0003085 274.9701  85.1106 14.98323424 39098,6950.213,96.107,574.222,569.934,0.0
55287.0,STARLINK-5341,PAYLOAD,2023-09-24 21:25:38,14.98325604,0.0003048,69.9989,105.7987,274.4098,85.6713,7.5764e-05,8.11e-06,0.0,0 STARLINK-5341,1 55287U 23010U   23267.89280217  .00000811  00000-0  75764-4 0  9993,2 55287  69.9989 105.7987 0003048 274.4098  85.6713 14.98325604 39425,6950.206,96.107,574.19,569.953,0.0
55287.0,STARLINK-5341,PAYLOAD,2023-09-25 13:26:58,14.98330254,0.000302,69.999,104.1152,273.7527,86.3287,6.5504e-05,6.89e-06,0.0,0 STARLINK-5341,1 55287U 23010U   23268.56040069  .00000689  00000-0  65504-4 0  9991,2 55287  69.9990 104.1152 0003020 273.7527  86.3287 14.98330254 39525,6950.192,96.107,574.156,569.958,0.0
55287.0,STARLINK-5341,PAYLOAD,2023-09-25 19:51:30,14.98331004,0.0003012,69.9989,103.4417,273.4856,86.5959,7.0786e-05,7.52e-06,0.0,0 STARLINK-5341,1 55287U 23010U   23268.82744002  .00000752  00000-0  70786-4 0  9997,2 55287  69.9989 103.4417 0003012 273.4856  86.5959 14.98331004 39254,6950.19,96.107,574.148,569.961,0.0
